{"type": "FeatureCollection", "features": [ {"type": "Feature", "properties": {"norad_id": 44543, "name": "BEIDOU-3 M23 (C45)", "group": "beidou", "lat": -44.55670490577017, "lon": 54.13410282452184, "alt_km": 21547.232230506634, "timestamp": "2025-12-04T19:33:59.869693+00:00", "meta": {"OBJECT_NAME": "BEIDOU-3 M23 (C45)", "OBJECT_ID": "2019-061B", "EPOCH": "2025-12-04T04:33:30.400416", "MEAN_MOTION": 1.86227468, "ECCENTRICITY": 0.0006118, "INCLINATION": 54.3989, "RA_OF_ASC_NODE": 189.2733, "ARG_OF_PERICENTER": 22.8981, "MEAN_ANOMALY": 157.6124, "EPHEMERIS_TYPE": 0, "CLASSIFICATION_TYPE": "U", "NORAD_CAT_ID": 44543, "ELEMENT_SET_NO": 999, "REV_AT_EPOCH": 4216, "BSTAR": 0, "MEAN_MOTION_DOT": 1.08e-06, "MEAN_MOTION_DDOT": 0}, "tle": {"line1": "1 44543U 19061B   25338.18993519  .00000108  00000+0  00000+0 0  9990", "line2": "2 44543  54.3989 189.2733 0006118  22.8981 157.6124  1.86227468 42162"}}, "geometry": {"type": "Point", "coordinates": [54.13410282452184, -44.55670490577017]}}, {"type": "Feature", "properties": {"norad_id": 44709, "name": "BEIDOU-3 IGSO-3 (C40)", "group": "beidou", "lat": -15.224603136211691, "lon": 113.8722512116063, "alt_km": 35609.49627761349, "timestamp": "2025-12-04T19:33:59.869703+00:00", "meta": {"OBJECT_NAME": "BEIDOU-3 IGSO-3 (C40)", "OBJECT_ID": "2019-073A", "EPOCH": "2025-11-20T07:11:22.740000", "MEAN_MOTION": 1.00250097, "ECCENTRICITY": 0.0044538, "INCLINATION": 55.163, "RA_OF_ASC_NODE": 283.159, "ARG_OF_PERICENTER": 191.5856, "MEAN_ANOMALY": 168.2409, "EPHEMERIS_TYPE": 0, "CLASSIFICATION_TYPE": "U", "NORAD_CAT_ID": 44709, "ELEMENT_SET_NO": 999, "REV_AT_EPOCH": 2236, "BSTAR": 0, "MEAN_MOTION_DOT": -2.06e-06, "MEAN_MOTION_DDOT": 0}, "tle": {"line1": "1 44709U 19073A   25324.29956875 -.00000206  00000+0  00000+0 0  9998", "line2": "2 44709  55.1630 283.1590 0044538 191.5856 168.2409  1.00250097 22360"}}, "geometry": {"type": "Point", "coordinates": [113.8722512116063, -15.224603136211691]}}, {"type": "Feature", "properties": {"norad_id": 44793, "name": "BEIDOU-3 M22 (C44)", "group": "beidou", "lat": 51.19329333848771, "lon": 10.759323933004753, "alt_km": 21512.14282040908, "timestamp": "2025-12-04T19:33:59.869735+00:00", "meta": {"OBJECT_NAME": "BEIDOU-3 M22 (C44)", "OBJECT_ID": "2019-078A", "EPOCH": "2025-12-02T00:28:58.554624", "MEAN_MOTION": 1.86231817, "ECCENTRICITY": 0.00056333, "INCLINATION": 54.1183, "RA_OF_ASC_NODE": 306.7625, "ARG_OF_PERICENTER": 22.616, "MEAN_ANOMALY": 337.398, "EPHEMERIS_TYPE": 0, "CLASSIFICATION_TYPE": "U", "NORAD_CAT_ID": 44793, "ELEMENT_SET_NO": 999, "REV_AT_EPOCH": 4097, "BSTAR": 0, "MEAN_MOTION_DOT": -6.1e-07, "MEAN_MOTION_DDOT": 0}, "tle": {"line1": "1 44793U 19078A   25336.02012216 -.00000061  00000+0  00000+0 0  9991", "line2": "2 44793  54.1183 306.7625 0005633  22.6160 337.3980  1.86231817 40974"}}, "geometry": {"type": "Point", "coordinates": [10.759323933004753, 51.19329333848771]}}, {"type": "Feature", "properties": {"norad_id": 44794, "name": "BEIDOU-3 M21 (C43)", "group": "beidou", "lat": -14.62252164644703, "lon": -64.28571007030732, "alt_km": 21520.83245304761, "timestamp": "2025-12-04T19:33:59.869758+00:00", "meta": {"OBJECT_NAME": "BEIDOU-3 M21 (C43)", "OBJECT_ID": "2019-078B", "EPOCH": "2025-12-04T07:19:45.423840", "MEAN_MOTION": 1.86227545, "ECCENTRICITY": 0.00039582, "INCLINATION": 54.0893, "RA_OF_ASC_NODE": 306.6475, "ARG_OF_PERICENTER": 10.7683, "MEAN_ANOMALY": 349.2229, "EPHEMERIS_TYPE": 0, "CLASSIFICATION_TYPE": "U", "NORAD_CAT_ID": 44794, "ELEMENT_SET_NO": 999, "REV_AT_EPOCH": 4102, "BSTAR": 0, "MEAN_MOTION_DOT": -6.8e-07, "MEAN_MOTION_DDOT": 0}, "tle": {"line1": "1 44794U 19078B   25338.30538685 -.00000068  00000+0  00000+0 0  9995", "line2": "2 44794  54.0893 306.6475 0003958  10.7683 349.2229  1.86227545 41028"}}, "geometry": {"type": "Point", "coordinates": [-64.28571007030732, -14.62252164644703]}}, {"type": "Feature", "properties": {"norad_id": 44864, "name": "BEIDOU-3 M19 (C41)", "group": "beidou", "lat": 2.183750245425301, "lon": -112.22190890894875, "alt_km": 21542.77999185743, "timestamp": "2025-12-04T19:33:59.869769+00:00", "meta": {"OBJECT_NAME": "BEIDOU-3 M19 (C41)", "OBJECT_ID": "2019-090A", "EPOCH": "2025-12-02T22:27:31.551840", "MEAN_MOTION": 1.86231053, "ECCENTRICITY": 0.00175607, "INCLINATION": 56.3847, "RA_OF_ASC_NODE": 69.2872, "ARG_OF_PERICENTER": 284.9296, "MEAN_ANOMALY": 72.494, "EPHEMERIS_TYPE": 0, "CLASSIFICATION_TYPE": "U", "NORAD_CAT_ID": 44864, "ELEMENT_SET_NO": 999, "REV_AT_EPOCH": 4057, "BSTAR": 0, "MEAN_MOTION_DOT": -4.9e-07, "MEAN_MOTION_DDOT": 0}, "tle": {"line1": "1 44864U 19090A   25336.93578185 -.00000049  00000+0  00000+0 0  9992", "line2": "2 44864  56.3847  69.2872 0017560 284.9296  72.4940  1.86231053 40575"}}, "geometry": {"type": "Point", "coordinates": [-112.22190890894875, 2.183750245425301]}}, {"type": "Feature", "properties": {"norad_id": 44865, "name": "BEIDOU-3 M20 (C42)", "group": "beidou", "lat": -56.30029507030181, "lon": -26.01441705110975, "alt_km": 21498.839394899805, "timestamp": "2025-12-04T19:33:59.869779+00:00", "meta": {"OBJECT_NAME": "BEIDOU-3 M20 (C42)", "OBJECT_ID": "2019-090B", "EPOCH": "2025-12-02T19:15:49.919904", "MEAN_MOTION": 1.86231044, "ECCENTRICITY": 0.00146831, "INCLINATION": 56.3861, "RA_OF_ASC_NODE": 69.3259, "ARG_OF_PERICENTER": 297.6742, "MEAN_ANOMALY": 60.1134, "EPHEMERIS_TYPE": 0, "CLASSIFICATION_TYPE": "U", "NORAD_CAT_ID": 44865, "ELEMENT_SET_NO": 999, "REV_AT_EPOCH": 4055, "BSTAR": 0, "MEAN_MOTION_DOT": -4.8e-07, "MEAN_MOTION_DDOT": 0}, "tle": {"line1": "1 44865U 19090B   25336.80266111 -.00000048  00000+0  00000+0 0  9991", "line2": "2 44865  56.3861  69.3259 0014683 297.6742  60.1134  1.86231044 40559"}}, "geometry": {"type": "Point", "coordinates": [-26.01441705110975, -56.30029507030181]}}, {"type": "Feature", "properties": {"norad_id": 45344, "name": "BEIDOU-3 G2 (C60)", "group": "beidou", "lat": 2.0909871067090524, "lon": 87.40909346903672, "alt_km": 35801.37265246342, "timestamp": "2025-12-04T19:33:59.869790+00:00", "meta": {"OBJECT_NAME": "BEIDOU-3 G2 (C60)", "OBJECT_ID": "2020-017A", "EPOCH": "2025-12-04T03:50:04.560000", "MEAN_MOTION": 1.00270213, "ECCENTRICITY": 0.0004673, "INCLINATION": 2.9843, "RA_OF_ASC_NODE": 43.5798, "ARG_OF_PERICENTER": 263.9443, "MEAN_ANOMALY": 263.2835, "EPHEMERIS_TYPE": 0, "CLASSIFICATION_TYPE": "U", "NORAD_CAT_ID": 45344, "ELEMENT_SET_NO": 999, "REV_AT_EPOCH": 2130, "BSTAR": 0, "MEAN_MOTION_DOT": -1.27e-06, "MEAN_MOTION_DDOT": 0}, "tle": {"line1": "1 45344U 20017A   25338.15977500 -.00000127  00000+0  00000+0 0  9994", "line2": "2 45344   2.9843  43.5798 0004673 263.9443 263.2835  1.00270213 21306"}}, "geometry": {"type": "Point", "coordinates": [87.40909346903672, 2.0909871067090524]}}, {"type": "Feature", "properties": {"norad_id": 45807, "name": "BEIDOU-3 G3 (C61)", "group": "beidou", "lat": 1.5528455407340045, "lon": 117.88726306301095, "alt_km": 35793.65015841444, "timestamp": "2025-12-04T19:33:59.869801+00:00", "meta": {"OBJECT_NAME": "BEIDOU-3 G3 (C61)", "OBJECT_ID": "2020-040A", "EPOCH": "2025-12-04T07:24:07.520832", "MEAN_MOTION": 1.00266116, "ECCENTRICITY": 0.00050455, "INCLINATION": 1.9693, "RA_OF_ASC_NODE": 66.5388, "ARG_OF_PERICENTER": 304.3272, "MEAN_ANOMALY": 284.0423, "EPHEMERIS_TYPE": 0, "CLASSIFICATION_TYPE": "U", "NORAD_CAT_ID": 45807, "ELEMENT_SET_NO": 999, "REV_AT_EPOCH": 2011, "BSTAR": 0, "MEAN_MOTION_DOT": -3.39e-06, "MEAN_MOTION_DDOT": 0}, "tle": {"line1": "1 45807U 20040A   25338.30842038 -.00000339  00000+0  00000+0 0  9993", "line2": "2 45807   1.9693  66.5388 0005045 304.3272 284.0423  1.00266116 20115"}}, "geometry": {"type": "Point", "coordinates": [117.88726306301095, 1.5528455407340045]}}, {"type": "Feature", "properties": {"norad_id": 56564, "name": "BEIDOU-3 G4 (C62)", "group": "beidou", "lat": -0.611658049551744, "lon": 167.41735617514152, "alt_km": 35772.81512041739, "timestamp": "2025-12-04T19:33:59.869811+00:00", "meta": {"OBJECT_NAME": "BEIDOU-3 G4 (C62)", "OBJECT_ID": "2023-066A", "EPOCH": "2025-12-04T08:24:38.943936", "MEAN_MOTION": 1.00270923, "ECCENTRICITY": 0.00032913, "INCLINATION": 0.8344, "RA_OF_ASC_NODE": 301.3331, "ARG_OF_PERICENTER": 236.0471, "MEAN_ANOMALY": 182.2752, "EPHEMERIS_TYPE": 0, "CLASSIFICATION_TYPE": "U", "NORAD_CAT_ID": 56564, "ELEMENT_SET_NO": 999, "REV_AT_EPOCH": 944, "BSTAR": 0, "MEAN_MOTION_DOT": -9.5e-07, "MEAN_MOTION_DDOT": 0}, "tle": {"line1": "1 56564U 23066A   25338.35045074 -.00000095  00000+0  00000+0 0  9995", "line2": "2 56564   0.8344 301.3331 0003291 236.0471 182.2752  1.00270923  9447"}}, "geometry": {"type": "Point", "coordinates": [167.41735617514152, -0.611658049551744]}}, {"type": "Feature", "properties": {"norad_id": 58654, "name": "BEIDOU-3 M28 (C50)", "group": "beidou", "lat": -51.11709366721665, "lon": 10.76825876894372, "alt_km": 21528.734130524113, "timestamp": "2025-12-04T19:33:59.869822+00:00", "meta": {"OBJECT_NAME": "BEIDOU-3 M28 (C50)", "OBJECT_ID": "2023-207A", "EPOCH": "2025-12-02T18:32:49.254720", "MEAN_MOTION": 1.86229565, "ECCENTRICITY": 0.00020071, "INCLINATION": 55.5759, "RA_OF_ASC_NODE": 68.9391, "ARG_OF_PERICENTER": 265.1815, "MEAN_ANOMALY": 94.7983, "EPHEMERIS_TYPE": 0, "CLASSIFICATION_TYPE": "U", "NORAD_CAT_ID": 58654, "ELEMENT_SET_NO": 999, "REV_AT_EPOCH": 1318, "BSTAR": 0, "MEAN_MOTION_DOT": -4.9e-07, "MEAN_MOTION_DDOT": 0}, "tle": {"line1": "1 58654U 23207A   25336.77279230 -.00000049  00000+0  00000+0 0  9990", "line2": "2 58654  55.5759  68.9391 0002007 265.1815  94.7983  1.86229565 13186"}}, "geometry": {"type": "Point", "coordinates": [10.76825876894372, -51.11709366721665]}}]}